CALSPHERE 1             
1 00900U 64063C   26062.76421234  .00000778  00000+0  78464-3 0  9996
2 00900  90.2155  69.3154 0023483 250.0908 158.2236 13.76488786 56922
CALSPHERE 2             
1 00902U 64063E   26062.79959582  .00000041  00000+0  47817-4 0  9995
2 00902  90.2280  73.2984 0018928 167.4018 316.9150 13.52891359842018
LCS 1                   
1 01361U 65034C   26062.44800489  .00000012  00000+0  54250-3 0  9993
2 01361  32.1423  68.0797 0013179 107.6523 252.5414  9.89309907199411
TEMPSAT 1               
1 01512U 65065E   26062.41344112  .00000030  00000+0  42277-4 0  9995
2 01512  89.9924 212.5896 0069644 184.2343 202.0847 13.33588777945956
CALSPHERE 4A            
1 01520U 65065H   26062.66693280  .00000125  00000+0  22202-3 0  9994
2 01520  89.9043 123.5279 0070770  43.0291 124.2718 13.36257886948614
OPS 5712 (P/L 160)      
1 02826U 67053A   26062.73504479  .00010096  00000+0  14706-2 0  9999
2 02826  69.9173 296.4502 0004547 229.1887 130.8866 14.76063971 50663
OPS 5712 (P/L 153)      
1 02874U 67053H   26062.78551544  .00000059  00000+0  80834-4 0  9997
2 02874  69.9763 341.2244 0008954 315.8695  44.1695 13.96810439992065
RIGIDSPHERE 2 (LCS 4)   
1 05398U 71067E   26062.82492362  .00000992  00000+0  31786-3 0  9995
2 05398  87.6268   8.0352 0058205 220.9525 138.7296 14.37731155858742
COSMOS 2493 (SKRL-756 1)
1 39490U 13078A   26062.75025515  .00004879  00000+0  37468-3 0  9998
2 39490  82.4163   4.2927 0011374 236.9067 123.1066 15.01519131662138
COSMOS 2494 (SKRL-756 2)
1 39491U 13078B   26062.80183039  .00005823  00000+0  41702-3 0  9997
2 39491  82.4158 354.0692 0015296 196.4598 163.6134 15.04141440662967
