[{"OBJECT_NAME":"CALSPHERE 1","OBJECT_ID":"1964-063C","EPOCH":"2026-03-03T18:20:27.946176","MEAN_MOTION":13.76488786,"ECCENTRICITY":0.0023483,"INCLINATION":90.2155,"RA_OF_ASC_NODE":69.3154,"ARG_OF_PERICENTER":250.0908,"MEAN_ANOMALY":158.2236,"EPHEMERIS_TYPE":0,"CLASSIFICATION_TYPE":"U","NORAD_CAT_ID":900,"ELEMENT_SET_NO":999,"REV_AT_EPOCH":5692,"BSTAR":0.00078464,"MEAN_MOTION_DOT":7.78e-6,"MEAN_MOTION_DDOT":0},{"OBJECT_NAME":"CALSPHERE 2","OBJECT_ID":"1964-063E","EPOCH":"2026-03-03T19:11:25.078848","MEAN_MOTION":13.52891359,"ECCENTRICITY":0.0018928,"INCLINATION":90.228,"RA_OF_ASC_NODE":73.2984,"ARG_OF_PERICENTER":167.4018,"MEAN_ANOMALY":316.915,"EPHEMERIS_TYPE":0,"CLASSIFICATION_TYPE":"U","NORAD_CAT_ID":902,"ELEMENT_SET_NO":999,"REV_AT_EPOCH":84201,"BSTAR":4.7817e-5,"MEAN_MOTION_DOT":4.1e-7,"MEAN_MOTION_DDOT":0},{"OBJECT_NAME":"LCS 1","OBJECT_ID":"1965-034C","EPOCH":"2026-03-03T10:45:07.622496","MEAN_MOTION":9.89309907,"ECCENTRICITY":0.00131796,"INCLINATION":32.1423,"RA_OF_ASC_NODE":68.0797,"ARG_OF_PERICENTER":107.6523,"MEAN_ANOMALY":252.5414,"EPHEMERIS_TYPE":0,"CLASSIFICATION_TYPE":"U","NORAD_CAT_ID":1361,"ELEMENT_SET_NO":999,"REV_AT_EPOCH":19941,"BSTAR":0.00054249819,"MEAN_MOTION_DOT":1.2e-7,"MEAN_MOTION_DDOT":0},{"OBJECT_NAME":"TEMPSAT 1","OBJECT_ID":"1965-065E","EPOCH":"2026-03-03T09:55:21.312768","MEAN_MOTION":13.33588777,"ECCENTRICITY":0.0069644,"INCLINATION":89.9924,"RA_OF_ASC_NODE":212.5896,"ARG_OF_PERICENTER":184.2343,"MEAN_ANOMALY":202.0847,"EPHEMERIS_TYPE":0,"CLASSIFICATION_TYPE":"U","NORAD_CAT_ID":1512,"ELEMENT_SET_NO":999,"REV_AT_EPOCH":94595,"BSTAR":4.2276862e-5,"MEAN_MOTION_DOT":3.0e-7,"MEAN_MOTION_DDOT":0},{"OBJECT_NAME":"CALSPHERE 4A","OBJECT_ID":"1965-065H","EPOCH":"2026-03-03T16:00:22.993920","MEAN_MOTION":13.36257886,"ECCENTRICITY":0.007077,"INCLINATION":89.9043,"RA_OF_ASC_NODE":123.5279,"ARG_OF_PERICENTER":43.0291,"MEAN_ANOMALY":124.2718,"EPHEMERIS_TYPE":0,"CLASSIFICATION_TYPE":"U","NORAD_CAT_ID":1520,"ELEMENT_SET_NO":999,"REV_AT_EPOCH":94861,"BSTAR":0.00022202,"MEAN_MOTION_DOT":1.25e-6,"MEAN_MOTION_DDOT":0},{"OBJECT_NAME":"OPS 5712 (P/L 160)","OBJECT_ID":"1967-053A","EPOCH":"2026-03-03T17:38:27.869856","MEAN_MOTION":14.76063971,"ECCENTRICITY":0.0004547,"INCLINATION":69.9173,"RA_OF_ASC_NODE":296.4502,"ARG_OF_PERICENTER":229.1887,"MEAN_ANOMALY":130.8866,"EPHEMERIS_TYPE":0,"CLASSIFICATION_TYPE":"U","NORAD_CAT_ID":2826,"ELEMENT_SET_NO":999,"REV_AT_EPOCH":5066,"BSTAR":0.0014706,"MEAN_MOTION_DOT":0.00010096,"MEAN_MOTION_DDOT":0},{"OBJECT_NAME":"OPS 5712 (P/L 153)","OBJECT_ID":"1967-053H","EPOCH":"2026-03-03T18:51:08.534016","MEAN_MOTION":13.96810439,"ECCENTRICITY":0.0008954,"INCLINATION":69.9763,"RA_OF_ASC_NODE":341.2244,"ARG_OF_PERICENTER":315.8695,"MEAN_ANOMALY":44.1695,"EPHEMERIS_TYPE":0,"CLASSIFICATION_TYPE":"U","NORAD_CAT_ID":2874,"ELEMENT_SET_NO":999,"REV_AT_EPOCH":99206,"BSTAR":8.0834e-5,"MEAN_MOTION_DOT":5.9e-7,"MEAN_MOTION_DDOT":0},{"OBJECT_NAME":"RIGIDSPHERE 2 (LCS 4)","OBJECT_ID":"1971-067E","EPOCH":"2026-03-03T19:47:53.400768","MEAN_MOTION":14.37731155,"ECCENTRICITY":0.0058205,"INCLINATION":87.6268,"RA_OF_ASC_NODE":8.0352,"ARG_OF_PERICENTER":220.9525,"MEAN_ANOMALY":138.7296,"EPHEMERIS_TYPE":0,"CLASSIFICATION_TYPE":"U","NORAD_CAT_ID":5398,"ELEMENT_SET_NO":999,"REV_AT_EPOCH":85874,"BSTAR":0.00031786,"MEAN_MOTION_DOT":9.92e-6,"MEAN_MOTION_DDOT":0},{"OBJECT_NAME":"COSMOS 2493 (SKRL-756 1)","OBJECT_ID":"2013-078A","EPOCH":"2026-03-03T18:00:22.044960","MEAN_MOTION":15.01519131,"ECCENTRICITY":0.0011374,"INCLINATION":82.4163,"RA_OF_ASC_NODE":4.2927,"ARG_OF_PERICENTER":236.9067,"MEAN_ANOMALY":123.1066,"EPHEMERIS_TYPE":0,"CLASSIFICATION_TYPE":"U","NORAD_CAT_ID":39490,"ELEMENT_SET_NO":999,"REV_AT_EPOCH":66213,"BSTAR":0.00037468,"MEAN_MOTION_DOT":4.879e-5,"MEAN_MOTION_DDOT":0},{"OBJECT_NAME":"COSMOS 2494 (SKRL-756 2)","OBJECT_ID":"2013-078B","EPOCH":"2026-03-03T19:14:38.145696","MEAN_MOTION":15.0414144,"ECCENTRICITY":0.0015296,"INCLINATION":82.4158,"RA_OF_ASC_NODE":354.0692,"ARG_OF_PERICENTER":196.4598,"MEAN_ANOMALY":163.6134,"EPHEMERIS_TYPE":0,"CLASSIFICATION_TYPE":"U","NORAD_CAT_ID":39491,"ELEMENT_SET_NO":999,"REV_AT_EPOCH":66296,"BSTAR":0.00041702,"MEAN_MOTION_DOT":5.823e-5,"MEAN_MOTION_DDOT":0}]
